
# Worst residual: 52.68 km
# MJD 59267.000000 (2021 Feb 22  0:00)
2019-040A = NORAD 44432 = Spektr-RG
1 44432U 19040A   21053.49919926  .00000000  00000-0  00000-0 2 10872
2 44432 074.5426 325.7196 7979561 334.4807 190.7892 00.00990500    02

# Worst residual: 49.62 km
# MJD 59268.000000 (2021 Feb 23  0:00)
2019-040A = NORAD 44432 = Spektr-RG
1 44432U 19040A   21054.49919926  .00000000  00000-0  00000-0 2 10873
2 44432 073.4091 326.2268 7881589 334.7226 191.9815 00.00984039    02

# Worst residual: 46.48 km
# MJD 59269.000000 (2021 Feb 24  0:00)
2019-040A = NORAD 44432 = Spektr-RG
1 44432U 19040A   21055.49919926  .00000000  00000-0  00000-0 2 10874
2 44432 072.3710 326.6818 7785296 334.9462 193.3186 00.00977776    02

# Worst residual: 43.38 km
# MJD 59270.000000 (2021 Feb 25  0:00)
2019-040A = NORAD 44432 = Spektr-RG
1 44432U 19040A   21056.49919926  .00000000  00000-0  00000-0 2 10875
2 44432 071.4387 327.0811 7692261 335.1611 194.7650 00.00971861    08

# Worst residual: 40.78 km
# MJD 59271.000000 (2021 Feb 26  0:00)
2019-040A = NORAD 44432 = Spektr-RG
1 44432U 19040A   21057.49919926  .00000000  00000-0  00000-0 2 10876
2 44432 070.6186 327.4235 7604011 335.3803 196.2709 00.00966455    06

# Worst residual: 38.74 km
# MJD 59272.000000 (2021 Feb 27  0:00)
2019-040A = NORAD 44432 = Spektr-RG
1 44432U 19040A   21058.49919926  .00000000  00000-0  00000-0 2 10877
2 44432 069.9104 327.7111 7521799 335.6197 197.7743 00.00961716    02

# Worst residual: 37.56 km
# MJD 59273.000000 (2021 Feb 28  0:00)
2019-040A = NORAD 44432 = Spektr-RG
1 44432U 19040A   21059.49919926  .00000000  00000-0  00000-0 2 10878
2 44432 069.3055 327.9493 7446292 335.8960 199.2068 00.00957770    02

# Worst residual: 37.51 km
# MJD 59274.000000 (2021 Mar  1  0:00)
2019-040A = NORAD 44432 = Spektr-RG
1 44432U 19040A   21060.49919926  .00000000  00000-0  00000-0 2 10870
2 44432 068.7858 328.1470 7377366 336.2241 200.5028 00.00954689    04

# Worst residual: 38.62 km
# MJD 59275.000000 (2021 Mar  2  0:00)
2019-040A = NORAD 44432 = Spektr-RG
1 44432U 19040A   21061.49919926  .00000000  00000-0  00000-0 2 10871
2 44432 068.3243 328.3163 7314048 336.6144 201.6085 00.00952463    06

# Worst residual: 40.70 km
# MJD 59276.000000 (2021 Mar  3  0:00)
2019-040A = NORAD 44432 = Spektr-RG
1 44432U 19040A   21062.49919926  .00000000  00000-0  00000-0 2 10872
2 44432 067.8882 328.4699 7254657 337.0717 202.4895 00.00951000    08

# Worst residual: 43.52 km
# MJD 59277.000000 (2021 Mar  4  0:00)
2019-040A = NORAD 44432 = Spektr-RG
1 44432U 19040A   21063.49919926  .00000000  00000-0  00000-0 2 10873
2 44432 067.4433 328.6202 7197068 337.5944 203.1336 00.00950132    00

# Worst residual: 46.80 km
# MJD 59278.000000 (2021 Mar  5  0:00)
2019-040A = NORAD 44432 = Spektr-RG
1 44432U 19040A   21064.49919926  .00000000  00000-0  00000-0 2 10874
2 44432 066.9576 328.7771 7138996 338.1762 203.5499 00.00949638    07

# Worst residual: 50.25 km
# MJD 59279.000000 (2021 Mar  6  0:00)
2019-040A = NORAD 44432 = Spektr-RG
1 44432U 19040A   21065.49919926  .00000000  00000-0  00000-0 2 10875
2 44432 066.4045 328.9477 7078207 338.8068 203.7649 00.00949263    05

# Worst residual: 53.63 km
# MJD 59280.000000 (2021 Mar  7  0:00)
2019-040A = NORAD 44432 = Spektr-RG
1 44432U 19040A   21066.49919926  .00000000  00000-0  00000-0 2 10876
2 44432 065.7651 329.1356 7012639 339.4745 203.8168 00.00948745    06

# Worst residual: 56.70 km
# MJD 59281.000000 (2021 Mar  8  0:00)
2019-040A = NORAD 44432 = Spektr-RG
1 44432U 19040A   21067.49919926  .00000000  00000-0  00000-0 2 10877
2 44432 065.0284 329.3414 6940460 340.1665 203.7514 00.00947829    05

# Worst residual: 59.30 km
# MJD 59282.000000 (2021 Mar  9  0:00)
2019-040A = NORAD 44432 = Spektr-RG
1 44432U 19040A   21068.49919926  .00000000  00000-0  00000-0 2 10878
2 44432 064.1914 329.5633 6860077 340.8705 203.6173 00.00946278    04

# Worst residual: 60.50 km
# MJD 59283.000000 (2021 Mar 10  0:00)
2019-040A = NORAD 44432 = Spektr-RG
1 44432U 19040A   21069.49919926  .00000000  00000-0  00000-0 2 10879
2 44432 063.2535 329.7985 6767381 341.5658 203.4777 00.00943627    07

# Worst residual: 62.65 km
# MJD 59284.000000 (2021 Mar 11  0:00)
2019-040A = NORAD 44432 = Spektr-RG
1 44432U 19040A   21070.49919926  .00000000  00000-0  00000-0 2 10871
2 44432 062.2404 330.0380 6669682 342.2680 203.3348 00.00940495    06

# Worst residual: 63.28 km
# MJD 59285.000000 (2021 Mar 12  0:00)
2019-040A = NORAD 44432 = Spektr-RG
1 44432U 19040A   21071.49919926  .00000000  00000-0  00000-0 2 10872
2 44432 061.1522 330.2795 6557925 342.9413 203.2741 00.00935978    00

# Worst residual: 63.26 km
# MJD 59286.000000 (2021 Mar 13  0:00)
2019-040A = NORAD 44432 = Spektr-RG
1 44432U 19040A   21072.49919926  .00000000  00000-0  00000-0 2 10873
2 44432 060.0123 330.5155 6434544 343.5861 203.3168 00.00930267    03

# Worst residual: 62.61 km
# MJD 59287.000000 (2021 Mar 14  0:00)
2019-040A = NORAD 44432 = Spektr-RG
1 44432U 19040A   21073.49919926  .00000000  00000-0  00000-0 2 10874
2 44432 058.8407 330.7400 6299568 344.1948 203.4918 00.00923339    02

# Worst residual: 61.36 km
# MJD 59288.000000 (2021 Mar 15  0:00)
2019-040A = NORAD 44432 = Spektr-RG
1 44432U 19040A   21074.49919926  .00000000  00000-0  00000-0 2 10875
2 44432 057.6566 330.9477 6153389 344.7611 203.8214 00.00915217    03

# Worst residual: 59.59 km
# MJD 59289.000000 (2021 Mar 16  0:00)
2019-040A = NORAD 44432 = Spektr-RG
1 44432U 19040A   21075.49919926  .00000000  00000-0  00000-0 2 10876
2 44432 056.4782 331.1342 5996735 345.2788 204.3215 00.00905959    03

# Worst residual: 57.36 km
# MJD 59290.000000 (2021 Mar 17  0:00)
2019-040A = NORAD 44432 = Spektr-RG
1 44432U 19040A   21076.49919926  .00000000  00000-0  00000-0 2 10877
2 44432 055.3209 331.2964 5830635 345.7416 205.0035 00.00895658    07

# Worst residual: 54.76 km
# MJD 59291.000000 (2021 Mar 18  0:00)
2019-040A = NORAD 44432 = Spektr-RG
1 44432U 19040A   21077.49919926  .00000000  00000-0  00000-0 2 10878
2 44432 054.1977 331.4319 5656385 346.1430 205.8749 00.00884425    01

# Worst residual: 51.84 km
# MJD 59292.000000 (2021 Mar 19  0:00)
2019-040A = NORAD 44432 = Spektr-RG
1 44432U 19040A   21078.49919926  .00000000  00000-0  00000-0 2 10879
2 44432 053.1191 331.5396 5475546 346.4755 206.9415 00.00872397    02
